STARLINK-4700           
1 53722U 22107Y   26068.74825816 -.00001636  00000+0 -84774-4 0  9995
2 53722  53.2162 253.7706 0001149  89.3033 270.8091 15.08834191194417
CSC-1                   
1 58022U 23155G   26068.74030489  .00008819  00000+0  54557-3 0  9994
2 58022  97.5446 139.7305 0007504 212.9992 147.0770 15.10035960132723
